{
  "norad_id": 53619,
  "name": "STARLINK-4609",
  "history": [
    {
      "epoch": "2026-03-28T21:21:19.212480Z",
      "apogee_km": 540.7260402103102,
      "perigee_km": 538.8125473294531,
      "latitude_deg": -2.124578739414114e-05,
      "longitude_deg": 1.288863761994445,
      "height_km": 540.6047390228259,
      "semi_major_axis_km": 6917.906293769882,
      "eccentricity": 0.0001383,
      "inclination_deg": 53.2162,
      "raan_deg": 147.9227,
      "arg_perigee_deg": 86.3981,
      "mean_anomaly_deg": 273.7169,
      "mean_motion_rev_day": 15.08831525
    },
    {
      "epoch": "2026-03-30T03:33:39.102336Z",
      "apogee_km": 540.7421200021727,
      "perigee_km": 538.7677536434021,
      "latitude_deg": -2.6999292155144197e-05,
      "longitude_deg": -98.68501111110753,
      "height_km": 540.5932489633136,
      "semi_major_axis_km": 6917.891936822787,
      "eccentricity": 0.0001427,
      "inclination_deg": 53.2152,
      "raan_deg": 142.2722,
      "arg_perigee_deg": 86.6856,
      "mean_anomaly_deg": 273.4299,
      "mean_motion_rev_day": 15.08836222
    },
    {
      "epoch": "2026-03-30T03:33:39.103200Z",
      "apogee_km": 540.7421200021727,
      "perigee_km": 538.7677536434021,
      "latitude_deg": 5.358044703987783e-05,
      "longitude_deg": -98.684954803419,
      "height_km": 540.5932367901238,
      "semi_major_axis_km": 6917.891936822787,
      "eccentricity": 0.0001427,
      "inclination_deg": 53.2152,
      "raan_deg": 142.2722,
      "arg_perigee_deg": 86.6856,
      "mean_anomaly_deg": 273.43,
      "mean_motion_rev_day": 15.08836222
    },
    {
      "epoch": "2026-03-30T09:55:11.460576Z",
      "apogee_km": 540.7318934236691,
      "perigee_km": 538.7615417832212,
      "latitude_deg": -1.831474048166809e-05,
      "longitude_deg": 164.4793152788511,
      "height_km": 540.61607440479,
      "semi_major_axis_km": 6917.883717603445,
      "eccentricity": 0.00014241,
      "inclination_deg": 53.2151,
      "raan_deg": 141.0825,
      "arg_perigee_deg": 88.4866,
      "mean_anomaly_deg": 271.6289,
      "mean_motion_rev_day": 15.08838911
    }
  ]
}